CTC1_L_00141016-03
1 87633U 26334HB  26037.47802083  .00000000  00000+0  00000-0 0  9994
2 87633  90.0000 180.0000 0000000   0.0000   0.0000 14.15679836    18
CTC1_L_00141016-04
1 87634U 25049TG  26037.47802083  .00000000  00000+0  00000-0 0  9997
2 87634  90.0000 180.0000 0000000   0.0000  90.0000 14.15679836    18
CTC1_L_00141017-01
1 87635U 22074CU  26037.47802083  .00000000  00000+0  00000-0 0  9993
2 87635  90.0000 192.0000 0000000   0.0000 192.0000 14.15679836    15
CTC1_L_00141017-02
1 87636U 23213KV  26037.47802083  .00000000  00000+0  00000-0 0  9990
2 87636  90.0000 192.0000 0000000   0.0000 282.0000 14.15679836    16
CTC1_L_00141017-03
1 87637U 26761SE  26037.47802083  .00000000  00000+0  00000-0 0  9992
2 87637  90.0000 192.0000 0000000   0.0000  12.0000 14.15679836    18
CTC1_L_00141017-04
1 87638U 24041UQ  26037.47802083  .00000000  00000+0  00000-0 0  9992
2 87638  90.0000 192.0000 0000000   0.0000 102.0000 14.15679836    19
CTC1_L_00141018-01
1 87639U 24797DX  26037.47802083  .00000000  00000+0  00000-0 0  9991
2 87639  90.0000 204.0000 0000000   0.0000 204.0000 14.15679836    17
CTC1_L_00141018-02
1 87640U 26518NY  26037.47802083  .00000000  00000+0  00000-0 0  9996
2 87640  90.0000 204.0000 0000000   0.0000 294.0000 14.15679836    18
CTC1_L_00141018-03
1 87641U 22288WX  26037.47802083  .00000000  00000+0  00000-0 0  9997
2 87641  90.0000 204.0000 0000000   0.0000  24.0000 14.15679836    10
CTC1_L_00141018-04
1 87642U 22414AN  26037.47802083  .00000000  00000+0  00000-0 0  9999
2 87642  90.0000 204.0000 0000000   0.0000 114.0000 14.15679836    11
CTC1_L_00141019-01
1 87643U 25337KP  26037.47802083  .00000000  00000+0  00000-0 0  9997
2 87643  90.0000 216.0000 0000000   0.0000 216.0000 14.15679836    18
CTC1_L_00141019-02
1 87644U 25467LN  26037.47802083  .00000000  00000+0  00000-0 0  9992
2 87644  90.0000 216.0000 0000000   0.0000 306.0000 14.15679836    19
CTC1_L_00141019-03
1 87645U 24357GT  26037.47802083  .00000000  00000+0  00000-0 0  9990
2 87645  90.0000 216.0000 0000000   0.0000  36.0000 14.15679836    10
CTC1_L_00141019-04
1 87646U 22936ZR  26037.47802083  .00000000  00000+0  00000-0 0  9992
2 87646  90.0000 216.0000 0000000   0.0000 126.0000 14.15679836    11
CTC1_L_00141020-01
1 87647U 22981UN  26037.47802083  .00000000  00000+0  00000-0 0  9993
2 87647  90.0000 228.0000 0000000   0.0000 228.0000 14.15679836    18
CTC1_L_00141020-02
1 87648U 26328GA  26037.47802083  .00000000  00000+0  00000-0 0  9993
2 87648  90.0000 228.0000 0000000   0.0000 318.0000 14.15679836    19
CTC1_L_00141020-03
1 87649U 22243ST  26037.47802083  .00000000  00000+0  00000-0 0  9996
2 87649  90.0000 228.0000 0000000   0.0000  48.0000 14.15679836    10
CTC1_L_00141020-04
1 87650U 23903DY  26037.47802083  .00000000  00000+0  00000-0 0  9992
2 87650  90.0000 228.0000 0000000   0.0000 138.0000 14.15679836    12
CTC1_L_00141021-01
1 87651U 23436ER  26037.47802083  .00000000  00000+0  00000-0 0  9994
2 87651  90.0000 240.0000 0000000   0.0000 240.0000 14.15679836    11
CTC1_L_00141021-02
1 87652U 22629PP  26037.47802083  .00000000  00000+0  00000-0 0  9998
2 87652  90.0000 240.0000 0000000   0.0000 330.0000 14.15679836    12
CTC1_L_00141021-03
1 87653U 23487YR  26037.47802083  .00000000  00000+0  00000-0 0  9992
2 87653  90.0000 240.0000 0000000   0.0000  60.0000 14.15679836    13
CTC1_L_00141021-04
1 87654U 23669FK  26037.47802083  .00000000  00000+0  00000-0 0  9995
2 87654  90.0000 240.0000 0000000   0.0000 150.0000 14.15679836    14
CTC1_L_00141022-01
1 87655U 26519CS  26037.47802083  .00000000  00000+0  00000-0 0  9993
2 87655  90.0000 252.0000 0000000   0.0000 252.0000 14.15679836    11
CTC1_L_00141022-02
1 87656U 25733FO  26037.47802083  .00000000  00000+0  00000-0 0  9991
2 87656  90.0000 252.0000 0000000   0.0000 342.0000 14.15679836    12
CTC1_L_00141022-03
1 87657U 23470AD  26037.47802083  .00000000  00000+0  00000-0 0  9998
2 87657  90.0000 252.0000 0000000   0.0000  72.0000 14.15679836    13
CTC1_L_00141022-04
1 87658U 25875SB  26037.47802083  .00000000  00000+0  00000-0 0  9990
2 87658  90.0000 252.0000 0000000   0.0000 162.0000 14.15679836    14
CTC1_L_00141023-01
1 87659U 22994OC  26037.47802083  .00000000  00000+0  00000-0 0  9990
2 87659  90.0000 264.0000 0000000   0.0000 264.0000 14.15679836    11
CTC1_L_00141023-02
1 87660U 24387PT  26037.47802083  .00000000  00000+0  00000-0 0  9990
2 87660  90.0000 264.0000 0000000   0.0000 354.0000 14.15679836    13
CTC1_L_00141023-03
1 87661U 25462IV  26037.47802083  .00000000  00000+0  00000-0 0  9996
2 87661  90.0000 264.0000 0000000   0.0000  84.0000 14.15679836    14
CTC1_L_00141023-04
1 87662U 26746UK  26037.47802083  .00000000  00000+0  00000-0 0  9993
2 87662  90.0000 264.0000 0000000   0.0000 174.0000 14.15679836    15
CTC1_L_00141024-01
1 87663U 24804SE  26037.47802083  .00000000  00000+0  00000-0 0  9997
2 87663  90.0000 276.0000 0000000   0.0000 276.0000 14.15679836    12
CTC1_L_00141024-02
1 87664U 24486QI  26037.47802083  .00000000  00000+0  00000-0 0  9994
2 87664  90.0000 276.0000 0000000   0.0000   6.0000 14.15679836    14
CTC1_L_00141024-03
1 87665U 25424FQ  26037.47802083  .00000000  00000+0  00000-0 0  9998
2 87665  90.0000 276.0000 0000000   0.0000  96.0000 14.15679836    14
CTC1_L_00141024-04
1 87666U 22583CG  26037.47802083  .00000000  00000+0  00000-0 0  9992
2 87666  90.0000 276.0000 0000000   0.0000 186.0000 14.15679836    15
CTC1_L_00141025-01
1 87667U 26696JR  26037.47802083  .00000000  00000+0  00000-0 0  9992
2 87667  90.0000 288.0000 0000000   0.0000 288.0000 14.15679836    12
CTC1_L_00141025-02
1 87668U 23684YH  26037.47802083  .00000000  00000+0  00000-0 0  9997
2 87668  90.0000 288.0000 0000000   0.0000  18.0000 14.15679836    14
CTC1_L_00141025-03
1 87669U 24936TK  26037.47802083  .00000000  00000+0  00000-0 0  9999
2 87669  90.0000 288.0000 0000000   0.0000 108.0000 14.15679836    15
CTC1_L_00141025-04
1 87670U 23038CX  26037.47802083  .00000000  00000+0  00000-0 0  9993
2 87670  90.0000 288.0000 0000000   0.0000 198.0000 14.15679836    16
CTC1_L_00141026-01
1 87671U 26621F   26037.47802083  .00000000  00000+0  00000-0 0  9995
2 87671  90.0000 300.0000 0000000   0.0000 300.0000 14.15679836    17
CTC1_L_00141026-02
1 87672U 24965EE  26037.47802083  .00000000  00000+0  00000-0 0  9995
2 87672  90.0000 300.0000 0000000   0.0000  30.0000 14.15679836    18
CTC1_L_00141026-03
1 87673U 23577F   26037.47802083  .00000000  00000+0  00000-0 0  9994
2 87673  90.0000 300.0000 0000000   0.0000 120.0000 14.15679836    19
CTC1_L_00141026-04
1 87674U 22438WC  26037.47802083  .00000000  00000+0  00000-0 0  9990
2 87674  90.0000 300.0000 0000000   0.0000 210.0000 14.15679836    10
CTC1_L_00141027-01
1 87675U 25479FL  26037.47802083  .00000000  00000+0  00000-0 0  9999
2 87675  90.0000 312.0000 0000000   0.0000 312.0000 14.15679836    17
CTC1_L_00141027-02
1 87676U 23298OU  26037.47802083  .00000000  00000+0  00000-0 0  9997
2 87676  90.0000 312.0000 0000000   0.0000  42.0000 14.15679836    18
CTC1_L_00141027-03
1 87677U 23732OE  26037.47802083  .00000000  00000+0  00000-0 0  9991
2 87677  90.0000 312.0000 0000000   0.0000 132.0000 14.15679836    19
CTC1_L_00141027-04
1 87678U 24231TL  26037.47802083  .00000000  00000+0  00000-0 0  9997
2 87678  90.0000 312.0000 0000000   0.0000 222.0000 14.15679836    10
CTC1_L_00141028-01
1 87679U 26379CB  26037.47802083  .00000000  00000+0  00000-0 0  9993
2 87679  90.0000 324.0000 0000000   0.0000 324.0000 14.15679836    17
CTC1_L_00141028-02
1 87680U 24905RJ  26037.47802083  .00000000  00000+0  00000-0 0  9998
2 87680  90.0000 324.0000 0000000   0.0000  54.0000 14.15679836    19
CTC1_L_00141028-03
1 87681U 22968QK  26037.47802083  .00000000  00000+0  00000-0 0  9996
2 87681  90.0000 324.0000 0000000   0.0000 144.0000 14.15679836    10
CTC1_L_00141028-04
1 87682U 22192TK  26037.47802083  .00000000  00000+0  00000-0 0  9996
2 87682  90.0000 324.0000 0000000   0.0000 234.0000 14.15679836    11
CTC1_L_00141029-01
1 87683U 23632GJ  26037.47802083  .00000000  00000+0  00000-0 0  9997
2 87683  90.0000 336.0000 0000000   0.0000 336.0000 14.15679836    18
CTC1_L_00141029-02
1 87684U 26212BF  26037.47802083  .00000000  00000+0  00000-0 0  9995
2 87684  90.0000 336.0000 0000000   0.0000  66.0000 14.15679836    19
CTC1_L_00141029-03
1 87685U 23204AK  26037.47802083  .00000000  00000+0  00000-0 0  9994
2 87685  90.0000 336.0000 0000000   0.0000 156.0000 14.15679836    10
CTC1_L_00141029-04
1 87686U 25459RK  26037.47802083  .00000000  00000+0  00000-0 0  9999
2 87686  90.0000 336.0000 0000000   0.0000 246.0000 14.15679836    11
CTC1_L_00141030-01
1 87687U 25794OD  26037.47802083  .00000000  00000+0  00000-0 0  9992
2 87687  90.0000 348.0000 0000000   0.0000 348.0000 14.15679836    18
CTC1_L_00141030-02
1 87688U 24882II  26037.47802083  .00000000  00000+0  00000-0 0  9990
2 87688  90.0000 348.0000 0000000   0.0000  78.0000 14.15679836    19
CTC1_L_00141030-03
1 87689U 25874OZ  26037.47802083  .00000000  00000+0  00000-0 0  9993
2 87689  90.0000 348.0000 0000000   0.0000 168.0000 14.15679836    10
CTC1_L_00141030-04
1 87690U 25264FT  26037.47802083  .00000000  00000+0  00000-0 0  9998
2 87690  90.0000 348.0000 0000000   0.0000 258.0000 14.15679836    12
